NORAD_CAT_ID,OBJECT_NAME,OBJECT_TYPE,EPOCH,MEAN_MOTION,ECCENTRICITY,INCLINATION,RA_OF_ASC_NODE,ARG_OF_PERICENTER,MEAN_ANOMALY,BSTAR,MEAN_MOTION_DOT,MEAN_MOTION_DDOT,TLE_LINE0,TLE_LINE1,TLE_LINE2,SEMIMAJOR_AXIS,PERIOD,APOGEE,PERIGEE,DECAYED
49176.0,STARLINK-3069,PAYLOAD,2024-01-16 13:03:16,14.98326009,0.0002444,70.0008,69.0438,257.0856,103.0031,-3.2803e-05,-4.84e-06,0.0,0 STARLINK-3069,1 49176U 21082AY  24016.54394498 -.00000484  00000-0 -32803-4 0  9997,2 49176  70.0008  69.0438 0002444 257.0856 103.0031 14.98326009129654,6950.205,96.107,573.769,570.372,0.0
49176.0,STARLINK-3069,PAYLOAD,2024-01-17 11:29:09,14.98331507,0.0002556,70.0004,66.6863,257.406,102.6813,6.7878e-05,7.17e-06,0.0,0 STARLINK-3069,1 49176U 21082AY  24017.47857871  .00000717  00000-0  67878-4 0  9996,2 49176  70.0004  66.6863 0002556 257.4060 102.6813 14.98331507129797,6950.188,96.107,573.83,570.277,0.0
49176.0,STARLINK-3069,PAYLOAD,2024-01-17 13:05:17,14.98332008,0.0002556,70.0004,66.518,257.836,102.2513,7.2646e-05,7.74e-06,0.0,0 STARLINK-3069,1 49176U 21082AY  24017.54533838  .00000774  00000-0  72646-4 0  9990,2 49176  70.0004  66.5180 0002556 257.8360 102.2513 14.98332008129807,6950.187,96.107,573.828,570.275,0.0
49176.0,STARLINK-3069,PAYLOAD,2024-01-18 13:07:18,14.98331771,0.0002716,70.0001,63.9921,266.7151,93.3698,0.00010951,1.214e-05,0.0,0 STARLINK-3069,1 49176U 21082AY  24018.54673814  .00001214  00000-0  10951-3 0  9990,2 49176  70.0001  63.9921 0002716 266.7151  93.3698 14.98331771129959,6950.187,96.107,573.94,570.165,0.0
49176.0,STARLINK-3069,PAYLOAD,2024-01-19 11:33:12,14.98318273,0.0002839,69.9998,61.6366,263.8274,96.2562,-0.00015104,-1.894e-05,0.0,0 STARLINK-3069,1 49176U 21082AY  24019.48139348 -.00001894  00000-0 -15104-3 0  9994,2 49176  69.9998  61.6366 0002839 263.8274  96.2562 14.98318273130090,6950.229,96.108,574.067,570.121,0.0
49176.0,STARLINK-3069,PAYLOAD,2024-01-19 13:09:20,14.98317864,0.0002842,69.9998,61.4683,264.384,95.6995,-0.00015564,-1.949e-05,0.0,0 STARLINK-3069,1 49176U 21082AY  24019.54815409 -.00001949  00000-0 -15564-3 0  9991,2 49176  69.9998  61.4683 0002842 264.3840  95.6995 14.98317864130109,6950.23,96.108,574.071,570.12,0.0
49176.0,STARLINK-3069,PAYLOAD,2024-01-20 03:34:32,14.98325759,0.0003136,69.9981,59.9525,263.219,96.8612,-7.02e-05,-9.3e-06,0.0,0 STARLINK-3069,1 49176U 21082AY  24020.14898874 -.00000930  00000-0 -70200-4 0  9994,2 49176  69.9981  59.9525 0003136 263.2190  96.8612 14.98325759130191,6950.206,96.107,574.251,569.891,0.0
49176.0,STARLINK-3069,PAYLOAD,2024-01-20 11:35:12,14.98334939,0.0002963,69.9993,59.1106,266.4918,93.5902,5.4538e-05,5.58e-06,0.0,0 STARLINK-3069,1 49176U 21082AY  24020.48278006  .00000558  00000-0  54538-4 0  9990,2 49176  69.9993  59.1106 0002963 266.4918  93.5902 14.98334939130243,6950.178,96.107,574.102,569.983,0.0
49176.0,STARLINK-3069,PAYLOAD,2024-01-21 06:48:48,14.98335553,0.0002876,69.9992,57.0894,268.8086,91.2743,9.7521e-05,1.071e-05,0.0,0 STARLINK-3069,1 49176U 21082AY  24021.28389946  .00001071  00000-0  97521-4 0  9995,2 49176  69.9992  57.0894 0002876 268.8086  91.2743 14.98335553130362,6950.176,96.107,574.04,570.042,0.0
49176.0,STARLINK-3069,PAYLOAD,2024-01-21 11:37:12,14.9833902,0.0003082,69.9996,56.5847,274.1792,85.9015,0.00013909,1.567e-05,0.0,0 STARLINK-3069,1 49176U 21082AY  24021.48417621  .00001567  00000-0  13909-3 0  9996,2 49176  69.9996  56.5847 0003082 274.1792  85.9015 14.98339020130390,6950.165,96.106,574.172,569.888,0.0
49176.0,STARLINK-3069,PAYLOAD,2024-01-22 03:38:33,14.98332805,0.0002556,69.9999,54.9003,258.1004,101.9868,4.8403e-05,4.85e-06,0.0,0 STARLINK-3069,1 49176U 21082AY  24022.15178156  .00000485  00000-0  48403-4 0  9994,2 49176  69.9999  54.9003 0002556 258.1004 101.9868 14.98332805130492,6950.184,96.107,573.826,570.273,0.0
49176.0,STARLINK-3069,PAYLOAD,2024-01-22 06:50:50,14.98332541,0.0002639,69.9998,54.5642,260.9576,99.1285,4.7748e-05,4.77e-06,0.0,0 STARLINK-3069,1 49176U 21082AY  24022.28530201  .00000477  00000-0  47748-4 0  9993,2 49176  69.9998  54.5642 0002639 260.9576  99.1285 14.98332541130514,6950.185,96.107,573.884,570.216,0.0
49176.0,STARLINK-3069,PAYLOAD,2024-01-22 11:39:14,14.98335098,0.0002736,70.0,54.0593,267.4351,92.6494,2.6851e-05,2.27e-06,0.0,0 STARLINK-3069,1 49176U 21082AY  24022.48558036  .00000227  00000-0  26851-4 0  9996,2 49176  70.0000  54.0593 0002736 267.4351  92.6494 14.98335098130545,6950.177,96.107,573.944,570.141,0.0
49176.0,STARLINK-3069,PAYLOAD,2024-01-23 03:40:34,14.98334892,0.0002802,69.9996,52.3764,267.3102,92.7736,-2.2604e-05,-3.63e-06,0.0,0 STARLINK-3069,1 49176U 21082AY  24023.15317909 -.00000363  00000-0 -22604-4 0  9998,2 49176  69.9996  52.3764 0002802 267.3102  92.7736 14.98334892130646,6950.178,96.107,573.99,570.095,0.0
49176.0,STARLINK-3069,PAYLOAD,2024-01-23 06:52:50,14.98334732,0.0002678,69.9999,52.0401,264.2745,95.8108,1.772e-06,-7.2e-07,0.0,0 STARLINK-3069,1 49176U 21082AY  24023.28669848 -.00000072  00000-0  17720-5 0  9994,2 49176  69.9999  52.0401 0002678 264.2745  95.8108 14.98334732130666,6950.178,96.107,573.905,570.182,0.0
49176.0,STARLINK-3069,PAYLOAD,2024-01-23 11:41:14,14.98337107,0.0002656,69.9999,51.535,267.0501,93.0354,4.3867e-06,-4.1e-07,0.0,0 STARLINK-3069,1 49176U 21082AY  24023.48697619 -.00000041  00000-0  43867-5 0  9990,2 49176  69.9999  51.5350 0002656 267.0501  93.0354 14.98337107130695,6950.171,96.107,573.882,570.19,0.0
49176.0,STARLINK-3069,PAYLOAD,2024-01-24 03:42:35,14.98331787,0.0002604,70.0002,49.8534,258.3893,101.6974,4.2147e-05,4.1e-06,0.0,0 STARLINK-3069,1 49176U 21082AY  24024.15457628  .00000410  00000-0  42147-4 0  9997,2 49176  70.0002  49.8534 0002604 258.3893 101.6974 14.98331787130790,6950.187,96.107,573.862,570.243,0.0
49176.0,STARLINK-3069,PAYLOAD,2024-01-24 11:43:15,14.98331311,0.0002629,70.0003,49.0116,260.24,99.8462,3.2796e-05,2.98e-06,0.0,0 STARLINK-3069,1 49176U 21082AY  24024.48837725  .00000298  00000-0  32796-4 0  9996,2 49176  70.0003  49.0116 0002629 260.2400  99.8462 14.98331311130841,6950.189,96.107,573.881,570.227,0.0
49176.0,STARLINK-3069,PAYLOAD,2024-01-25 03:44:36,14.98332608,0.0002615,70.0004,47.3281,267.6272,92.4587,4.6739e-05,4.65e-06,0.0,0 STARLINK-3069,1 49176U 21082AY  24025.15597555  .00000465  00000-0  46739-4 0  9993,2 49176  70.0004  47.3281 0002615 267.6272  92.4587 14.98332608130947,6950.185,96.107,573.867,570.232,0.0
49176.0,STARLINK-3069,PAYLOAD,2024-01-25 11:45:16,14.98331291,0.0002653,70.0003,46.4861,269.4708,90.6147,2.914e-05,2.55e-06,0.0,0 STARLINK-3069,1 49176U 21082AY  24025.48977692  .00000255  00000-0  29140-4 0  9997,2 49176  70.0003  46.4861 0002653 269.4708  90.6147 14.98331291130990,6950.189,96.107,573.898,570.21,0.0
49176.0,STARLINK-3069,PAYLOAD,2024-01-26 03:46:37,14.98331712,0.0002722,70.0002,44.8024,267.4576,92.6271,5.3393e-05,5.44e-06,0.0,0 STARLINK-3069,1 49176U 21082AY  24026.15737441  .00000544  00000-0  53393-4 0  9996,2 49176  70.0002  44.8024 0002722 267.4576  92.6271 14.98331712131090,6950.188,96.107,573.944,570.161,0.0
49176.0,STARLINK-3069,PAYLOAD,2024-01-26 10:11:09,14.98329826,0.0002742,70.0,44.1286,268.0712,92.0133,3.1459e-05,2.82e-06,0.0,0 STARLINK-3069,1 49176U 21082AY  24026.42441659  .00000282  00000-0  31459-4 0  9997,2 49176  70.0000  44.1286 0002742 268.0712  92.0133 14.98329826131131,6950.193,96.107,573.964,570.153,0.0
49176.0,STARLINK-3069,PAYLOAD,2024-01-27 03:48:38,14.98326024,0.0002723,69.9999,42.2764,267.3757,92.709,-6.866e-06,-1.75e-06,0.0,0 STARLINK-3069,1 49176U 21082AY  24027.15878062 -.00000175  00000-0 -68660-5 0  9998,2 49176  69.9999  42.2764 0002723 267.3757  92.7090 14.98326024131243,6950.205,96.107,573.963,570.178,0.0
49176.0,STARLINK-3069,PAYLOAD,2024-01-27 10:13:10,14.98329564,0.000263,70.0002,41.6034,263.7729,96.313,3.9275e-05,3.76e-06,0.0,0 STARLINK-3069,1 49176U 21082AY  24027.42581769  .00000376  00000-0  39275-4 0  9993,2 49176  70.0002  41.6034 0002630 263.7729  96.3130 14.98329564131281,6950.194,96.107,573.887,570.231,0.0
49176.0,STARLINK-3069,PAYLOAD,2024-01-28 05:26:47,14.98329245,0.0002561,70.0005,39.5838,251.8698,108.2183,4.6129e-05,4.57e-06,0.0,0 STARLINK-3069,1 49176U 21082AY  24028.22693691  .00000457  00000-0  46129-4 0  9996,2 49176  70.0005  39.5838 0002561 251.8698 108.2183 14.98329245131409,6950.195,96.107,573.84,570.28,0.0
49176.0,STARLINK-3069,PAYLOAD,2024-01-28 10:15:11,14.98330697,0.0002438,70.0006,39.0783,265.6419,94.4461,7.7034e-05,8.26e-06,0.0,0 STARLINK-3069,1 49176U 21082AY  24028.42721637  .00000826  00000-0  77034-4 0  9999,2 49176  70.0006  39.0783 0002438 265.6419  94.4461 14.98330697131432,6950.191,96.107,573.75,570.361,0.0
49176.0,STARLINK-3069,PAYLOAD,2024-01-29 10:17:12,14.98333813,0.0002682,70.0002,36.5542,262.829,97.2564,7.7389e-05,8.31e-06,0.0,0 STARLINK-3069,1 49176U 21082AY  24029.42861373  .00000831  00000-0  77389-4 0  9991,2 49176  70.0002  36.5542 0002682 262.8290  97.2564 14.98333813131584,6950.181,96.107,573.91,570.182,0.0
49176.0,STARLINK-3069,PAYLOAD,2024-01-30 10:19:13,14.98309737,0.0002537,70.0005,34.0285,265.8152,94.2717,0.00045174,5.298e-05,0.0,0 STARLINK-3069,1 49176U 21082AY  24030.43001938  .00005298  00000-0  45174-3 0  9995,2 49176  70.0005  34.0285 0002537 265.8152  94.2717 14.98309737131735,6950.256,96.108,573.884,570.357,0.0
49176.0,STARLINK-3069,PAYLOAD,2024-01-30 23:08:17,14.9833392,0.0002609,70.0006,32.6821,266.2938,93.7923,3.1845e-05,2.87e-06,0.0,0 STARLINK-3069,1 49176U 21082AY  24030.96409190  .00000287  00000-0  31845-4 0  9999,2 49176  70.0006  32.6821 0002609 266.2938  93.7923 14.98333920131816,6950.181,96.107,573.859,570.232,0.0
49176.0,STARLINK-3069,PAYLOAD,2024-01-31 03:56:41,14.98332972,0.0002615,70.0006,32.1769,267.6943,92.3916,2.1818e-05,1.67e-06,0.0,0 STARLINK-3069,1 49176U 21082AY  24031.16437242  .00000167  00000-0  21818-4 0  9997,2 49176  70.0006  32.1769 0002615 267.6943  92.3916 14.98332972131846,6950.184,96.107,573.866,570.231,0.0
